******** Week 948 almanac for PRN-01 ********
ID:                         01
Health:                     000
Eccentricity:               0.7082462311E-002
Time of Applicability(s):  319488.0000
Orbital Inclination(rad):   0.9686932881
Rate of Right Ascen(r/s):  -0.7714607059E-008
SQRT(A)  (m 1/2):           5153.631836
Right Ascen at Week(rad):   0.1134616230E+001
Argument of Perigee(rad):   0.632531510
Mean Anom(rad):            -0.2335504849E+001
Af0(s):                    -0.6675720215E-005
Af1(s/s):                  -0.3637978807E-011
week:                        948

******** Week 948 almanac for PRN-02 ********
ID:                         02
Health:                     000
Eccentricity:               0.1719093323E-001
Time of Applicability(s):  319488.0000
Orbital Inclination(rad):   0.9477149024
Rate of Right Ascen(r/s):  -0.7897471819E-008
SQRT(A)  (m 1/2):           5153.557129
Right Ascen at Week(rad):   0.1078006871E+001
Argument of Perigee(rad):  -1.946018664
Mean Anom(rad):            -0.1912527249E+001
Af0(s):                     0.2975463867E-003
Af1(s/s):                  -0.1091393642E-010
week:                        948

******** Week 948 almanac for PRN-03 ********
ID:                         03
Health:                     000
Eccentricity:               0.1074790955E-002
Time of Applicability(s):  319488.0000
Orbital Inclination(rad):   0.9600946067
Rate of Right Ascen(r/s):  -0.7897471819E-008
SQRT(A)  (m 1/2):           5153.574219
Right Ascen at Week(rad):   0.2177619053E+001
Argument of Perigee(rad):   0.553702275
Mean Anom(rad):             0.2909225648E+001
Af0(s):                    -0.5149841309E-004
Af1(s/s):                   0.3637978807E-011
week:                        948

******** Week 948 almanac for PRN-05 ********
ID:                         05
Health:                     000
Eccentricity:               0.5257129669E-002
Time of Applicability(s):  319488.0000
Orbital Inclination(rad):   0.9470078331
Rate of Right Ascen(r/s):  -0.8034620388E-008
SQRT(A)  (m 1/2):           5153.518066
Right Ascen at Week(rad):   0.2158730791E+001
Argument of Perigee(rad):   0.614353688
Mean Anom(rad):             0.6014676501E+000
Af0(s):                    -0.2479553223E-004
Af1(s/s):                   0.0000000000E+000
week:                        948

******** Week 948 almanac for PRN-06 ********
ID:                         06
Health:                     000
Eccentricity:               0.5807876587E-003
Time of Applicability(s):  319488.0000
Orbital Inclination(rad):   0.9684476114
Rate of Right Ascen(r/s):  -0.7714607059E-008
SQRT(A)  (m 1/2):           5153.725098
Right Ascen at Week(rad):   0.1126263225E+001
Argument of Perigee(rad):  -1.241959682
Mean Anom(rad):            -0.2065412628E+001
Af0(s):                     0.4062652588E-003
Af1(s/s):                   0.3637978807E-011
week:                        948

******** Week 948 almanac for PRN-07 ********
ID:                         07
Health:                     000
Eccentricity:               0.1107597351E-001
Time of Applicability(s):  319488.0000
Orbital Inclination(rad):   0.9606578653
Rate of Right Ascen(r/s):  -0.7840326581E-008
SQRT(A)  (m 1/2):           5153.669434
Right Ascen at Week(rad):  -0.1992425702E+001
Argument of Perigee(rad):  -2.548722936
Mean Anom(rad):            -0.2976596092E+001
Af0(s):                     0.2889633179E-003
Af1(s/s):                  -0.3637978807E-011
week:                        948

******** Week 948 almanac for PRN-08 ********
ID:                         08
Health:                     000
Eccentricity:               0.2751350403E-002
Time of Applicability(s):  319488.0000
Orbital Inclination(rad):   0.9681959427
Rate of Right Ascen(r/s):  -0.7931758961E-008
SQRT(A)  (m 1/2):           5153.661133
Right Ascen at Week(rad):   0.7116120397E-001
Argument of Perigee(rad):  -0.635065799
Mean Anom(rad):             0.3897475918E+000
Af0(s):                    -0.7820129395E-004
Af1(s/s):                   0.0000000000E+000
week:                        948

******** Week 948 almanac for PRN-09 ********
ID:                         09
Health:                     000
Eccentricity:               0.9317398071E-003
Time of Applicability(s):  319488.0000
Orbital Inclination(rad):   0.9535632041
Rate of Right Ascen(r/s):  -0.7886042771E-008
SQRT(A)  (m 1/2):           5153.694824
Right Ascen at Week(rad):  -0.3070624695E+001
Argument of Perigee(rad):   1.778799028
Mean Anom(rad):             0.9970650417E-001
Af0(s):                     0.4625320435E-003
Af1(s/s):                   0.3637978807E-011
week:                        948

******** Week 948 almanac for PRN-10 ********
ID:                         10
Health:                     000
Eccentricity:               0.2879142761E-002
Time of Applicability(s):  319488.0000
Orbital Inclination(rad):   0.9602264332
Rate of Right Ascen(r/s):  -0.7874613724E-008
SQRT(A)  (m 1/2):           5153.612305
Right Ascen at Week(rad):   0.2174012925E+001
Argument of Perigee(rad):  -2.882561497
Mean Anom(rad):             0.1963072590E+001
Af0(s):                     0.9632110596E-004
Af1(s/s):                   0.7275957614E-011
week:                        948

******** Week 948 almanac for PRN-11 ********
ID:                         11
Health:                     000
Eccentricity:               0.1699924469E-001
Time of Applicability(s):  319488.0000
Orbital Inclination(rad):   0.9027201300
Rate of Right Ascen(r/s):  -0.8343204671E-008
SQRT(A)  (m 1/2):           5153.675293
Right Ascen at Week(rad):   0.7219379475E+000
Argument of Perigee(rad):   1.712039405
Mean Anom(rad):            -0.2958441115E+001
Af0(s):                    -0.7228851318E-003
Af1(s/s):                  -0.3637978807E-011
week:                        948

******** Week 948 almanac for PRN-12 ********
ID:                         12
Health:                     000
Eccentricity:               0.6556510925E-002
Time of Applicability(s):  319488.0000
Orbital Inclination(rad):   0.9882036062
Rate of Right Ascen(r/s):  -0.7840326581E-008
SQRT(A)  (m 1/2):           5153.655762
Right Ascen at Week(rad):  -0.9041974104E+000
Argument of Perigee(rad):   0.911052013
Mean Anom(rad):             0.2708941537E+001
Af0(s):                     0.3681182861E-003
Af1(s/s):                   0.0000000000E+000
week:                        948

******** Week 948 almanac for PRN-13 ********
ID:                         13
Health:                     000
Eccentricity:               0.3562450409E-002
Time of Applicability(s):  319488.0000
Orbital Inclination(rad):   0.9694902390
Rate of Right Ascen(r/s):  -0.7737465154E-008
SQRT(A)  (m 1/2):           5153.609375
Right Ascen at Week(rad):  -0.2942195749E+001
Argument of Perigee(rad):   1.701520252
Mean Anom(rad):            -0.1679842287E+001
Af0(s):                    -0.9346008301E-004
Af1(s/s):                   0.0000000000E+000
week:                        948

******** Week 948 almanac for PRN-14 ********
ID:                         14
Health:                     000
Eccentricity:               0.9289741516E-002
Time of Applicability(s):  319488.0000
Orbital Inclination(rad):   0.9620240669
Rate of Right Ascen(r/s):  -0.7794610391E-008
SQRT(A)  (m 1/2):           5153.655273
Right Ascen at Week(rad):  -0.2982647751E+001
Argument of Perigee(rad):  -1.948305778
Mean Anom(rad):            -0.4478744532E+000
Af0(s):                    -0.8678436279E-004
Af1(s/s):                   0.0000000000E+000
week:                        948

******** Week 948 almanac for PRN-15 ********
ID:                         15
Health:                     000
Eccentricity:               0.9814262390E-002
Time of Applicability(s):  319488.0000
Orbital Inclination(rad):   0.9291333616
Rate of Right Ascen(r/s):  -0.8160339911E-008
SQRT(A)  (m 1/2):           5153.573730
Right Ascen at Week(rad):  -0.3135954076E+001
Argument of Perigee(rad):   0.621795892
Mean Anom(rad):            -0.9708870004E+000
Af0(s):                    -0.3566741943E-003
Af1(s/s):                   0.0000000000E+000
week:                        948

******** Week 948 almanac for PRN-16 ********
ID:                         16
Health:                     000
Eccentricity:               0.9349822998E-002
Time of Applicability(s):  319488.0000
Orbital Inclination(rad):   0.9886709910
Rate of Right Ascen(r/s):  -0.7840326581E-008
SQRT(A)  (m 1/2):           5153.738770
Right Ascen at Week(rad):  -0.8853113954E+000
Argument of Perigee(rad):   0.458003745
Mean Anom(rad):             0.7295808869E+000
Af0(s):                     0.3719329834E-004
Af1(s/s):                   0.0000000000E+000
week:                        948

******** Week 948 almanac for PRN-17 ********
ID:                         17
Health:                     000
Eccentricity:               0.1202678680E-001
Time of Applicability(s):  319488.0000
Orbital Inclination(rad):   0.9815104166
Rate of Right Ascen(r/s):  -0.7760323249E-008
SQRT(A)  (m 1/2):           5153.660645
Right Ascen at Week(rad):   0.1307385310E+000
Argument of Perigee(rad):  -1.838760600
Mean Anom(rad):            -0.1373313528E+000
Af0(s):                    -0.1487731934E-003
Af1(s/s):                   0.3637978807E-011
week:                        948

******** Week 948 almanac for PRN-18 ********
ID:                         18
Health:                     000
Eccentricity:               0.1814889908E-001
Time of Applicability(s):  319488.0000
Orbital Inclination(rad):   0.9258616682
Rate of Right Ascen(r/s):  -0.8240343243E-008
SQRT(A)  (m 1/2):           5153.569336
Right Ascen at Week(rad):   0.2126445664E+001
Argument of Perigee(rad):  -1.776267361
Mean Anom(rad):             0.1358186440E+001
Af0(s):                     0.6322860718E-003
Af1(s/s):                   0.0000000000E+000
week:                        948

